[{"OBJECT_NAME":"STARLINK-30157","OBJECT_ID":"2023-113T","EPOCH":"2026-03-09T22:00:01.999584","MEAN_MOTION":15.24444459,"ECCENTRICITY":0.00013627,"INCLINATION":43.0007,"RA_OF_ASC_NODE":348.8979,"ARG_OF_PERICENTER":302.1923,"MEAN_ANOMALY":3.8526,"EPHEMERIS_TYPE":0,"CLASSIFICATION_TYPE":"U","NORAD_CAT_ID":57512,"ELEMENT_SET_NO":999,"REV_AT_EPOCH":578,"BSTAR":0.060939524,"MEAN_MOTION_DOT":0.01691178,"MEAN_MOTION_DDOT":0},{"OBJECT_NAME":"LEMUR-2-VALHALLA","OBJECT_ID":"2024-022B","EPOCH":"2026-03-09T12:58:09.060096","MEAN_MOTION":15.36522305,"ECCENTRICITY":0.00112289,"INCLINATION":97.4228,"RA_OF_ASC_NODE":277.4862,"ARG_OF_PERICENTER":109.8773,"MEAN_ANOMALY":250.3682,"EPHEMERIS_TYPE":0,"CLASSIFICATION_TYPE":"U","NORAD_CAT_ID":58900,"ELEMENT_SET_NO":999,"REV_AT_EPOCH":11695,"BSTAR":0.00053647225,"MEAN_MOTION_DOT":0.00019103,"MEAN_MOTION_DDOT":0}]
